HORYU-4                 
1 41340U 16012D   21110.53148634  .00000934  00000-0  63219-4 0  9992
2 41340  31.0042 175.7813 0013843 317.7347  42.2222 15.01835935284072
OUFTI-1                 
1 41458U 16025C   21110.87224890  .00002958  00000-0  14706-3 0  9996
2 41458  98.1334 244.5538 0157953 253.6944 104.6861 15.08302430273796
E-ST@R-II               
1 41459U 16025D   21110.88413734  .00003475  00000-0  17372-3 0  9992
2 41459  98.1326 243.6946 0159602 256.4161 101.9246 15.07757286273740
AAUSAT 4                
1 41460U 16025E   21110.82983215  .00006460  00000-0  30495-3 0  9992
2 41460  98.1338 247.2281 0147221 241.1947 117.4437 15.10678895274011
AIST-2D (RS-48)         
1 41465U 16026B   21110.74739490  .00003850  00000-0  11188-3 0  9991
2 41465  97.1140 356.8180 0009526 215.4743 230.1808 15.36007701278574
SAMSAT-218D             
1 41466U 16026C   21110.80986075  .00027200  00000-0  42804-3 0  9996
2 41466  97.1605  19.2209 0006464 129.4451 301.4517 15.53547322279882
NUSAT-1 (FRESCO)        
1 41557U 16033B   21110.89324438  .00003745  00000-0  13439-3 0  9993
2 41557  97.3903 205.1700 0014715  80.2076  58.8881 15.29217880272733
NUSAT-2 (BATATA)        
1 41558U 16033C   21110.89422525  .00003609  00000-0  12162-3 0  9991
2 41558  97.4003 208.7267 0013686  75.0027 352.2700 15.31312584272918
CARTOSAT-2C             
1 41599U 16040A   21110.83014716 -.00015875  00000-0 -75126-3 0  9996
2 41599  97.4048 171.3194 0012595 212.0248 259.7650 15.19222080267761
SATHYABAMASAT           
1 41600U 16040B   21110.44248972  .00004007  00000-0  15877-3 0  9999
2 41600  97.2782 169.1675 0013294 175.5677 184.5681 15.25894567268304
LAPAN-A3                
1 41603U 16040E   21110.79595106  .00000393  00000-0  21278-4 0  9991
2 41603  97.2628 159.8962 0012447 198.0920 273.4995 15.20003108267821
BIROS                   
1 41604U 16040F   21110.56437066  .00001129  00000-0  51618-4 0  9996
2 41604  97.2692 164.9174 0012203 176.8129 183.3188 15.22485894268091
SWAYAM                  
1 41607U 16040J   21110.71706347  .00003756  00000-0  15046-3 0  9999
2 41607  97.2736 168.2935 0012908 174.3389 185.7998 15.25565771268246
BEESAT-4                
1 41619U 16040W   21110.86387532  .00003323  00000-0  13476-3 0  9994
2 41619  97.2755 168.5594 0011209 166.0478 194.1072 15.25252192256237
3CAT-2                  
1 41732U 16051B   21110.79178181  .00003327  00000-0  12173-3 0  9999
2 41732  97.3774  31.5721 0012914 359.4154  65.2007 15.28687888260697
PRATHAM                 
1 41783U 16059A   21110.40408162  .00000101  00000-0  28531-4 0  9999
2 41783  97.9709 162.4797 0034839  70.1288 290.3664 14.63128895243764
ALSAT 1N                
1 41789U 16059G   21110.77004896  .00000136  00000-0  34358-4 0  9993
2 41789  97.9743 166.3842 0029498  55.2480 305.1481 14.64408973244004
LISHUI 1-01             
1 41845U 16066E   21110.85745991  .00005166  00000-0  67472-3 0  9991
2 41845  98.7277 211.2635 0269135 297.5778  59.8348 14.58804723235004
CARTOSAT-2D             
1 41948U 17008A   21110.84501469  .00000983  00000-0  49885-4 0  9992
2 41948  97.4472 171.9826 0007828  14.4435 345.7002 15.19232306231639
NAYIF-1 (EO-88)         
1 42017U 17008BX  21110.67201659  .00003864  00000-0  14462-3 0  9992
2 42017  97.3197 179.3044 0004714 327.6681  32.4269 15.27885698232438
ZHUHAI-1 02 (CAS-4B)    
1 42759U 17034B   21110.56360392  .00000538  00000-0  45711-4 0  9999
2 42759  43.0161 139.3287 0008167 169.1490 329.1318 15.10160429212392
ZHUHAI-1 01 (CAS-4A)    
1 42761U 17034D   21110.55765854  .00000552  00000-0  46476-4 0  9998
2 42761  43.0165 138.4557 0009032 171.4966 326.0351 15.10241815212397
UCLSAT                  
1 42765U 17036A   21110.57475519  .00003019  00000-0  12497-3 0  9998
2 42765  97.2561 161.9519 0011621  31.3419 328.8509 15.24630489213351
NIUSAT                  
1 42766U 17036B   21110.35270644  .00002354  00000-0  10408-3 0  9998
2 42766  97.2569 158.3296 0015715  27.1735 333.0321 15.22554135212376
CARTOSAT-2E             
1 42767U 17036C   21110.87743200  .00001088  00000-0  54924-4 0  9994
2 42767  97.5102 170.2436 0010008  55.6556  59.7153 15.19210961212208
LITUANICASAT-2          
1 42768U 17036D   21110.57713021  .00005005  00000-0  19744-3 0  9993
2 42768  97.2635 162.5802 0014087  18.8156 341.3601 15.25907286212642
AALTO-1                 
1 42775U 17036L   21110.65274003  .00001929  00000-0  85879-4 0  9996
2 42775  97.2538 158.8956 0014172  25.8464 334.3478 15.22537348212408
URSA MAIOR              
1 42776U 17036M   21110.40206530  .00002096  00000-0  92423-4 0  9999
2 42776  97.2551 159.0867 0013973  26.3413 333.8532 15.22785036212387
COMPASS 2               
1 42777U 17036N   21110.72577000  .00003883  00000-0  15635-3 0  9992
2 42777  97.2617 162.9469 0012042  21.1857 338.9878 15.25386473212613
MAX VALIER SAT          
1 42778U 17036P   21110.57181499  .00002263  00000-0  97740-4 0  9998
2 42778  97.2616 161.0660 0012537  29.1864 331.0071 15.23432473212474
PEGASUS                 
1 42784U 17036V   21110.40747570  .00002769  00000-0  11620-3 0  9998
2 42784  97.2569 161.3440 0012268  32.9792 327.2208 15.24220345212518
NUDTSAT                 
1 42787U 17036Y   21110.61660033  .00002568  00000-0  10237-3 0  9992
2 42787  97.2620 163.7632 0012228  23.8388 336.3427 15.26022885212519
SUCHAI                  
1 42788U 17036Z   21110.56706014  .00003413  00000-0  13951-3 0  9993
2 42788  97.2580 162.4130 0011671  30.3743 329.8170 15.24967759212667
SKCUBE                  
1 42789U 17036AA  21110.38967044  .00002910  00000-0  12022-3 0  9995
2 42789  97.2573 161.9806 0011606  31.5005 328.6926 15.24722294212542
VZLUSAT-1               
1 42790U 17036AB  21110.41307547  .00004316  00000-0  17027-3 0  9999
2 42790  97.2602 163.5571 0010783  28.2686 331.9136 15.26019848212633
ROBUSTA-1B              
1 42792U 17036AD  21110.56422505  .00003237  00000-0  13253-3 0  9997
2 42792  97.2575 162.5068 0011191  31.4252 328.7652 15.24954874212602
D-SAT                   
1 42794U 17036AF  21110.59784195  .00000866  00000-0  79203-4 0  9991
2 42794  97.4662 133.5496 0127088  59.7209 301.6516 14.91519007208437
NORSAT 2                
1 42828U 17042D   21110.61720700  .00000554  00000-0  60078-4 0  9995
2 42828  97.4858 344.5127 0013949 345.1301  14.9507 14.91800964205090
TECHNOSAT               
1 42829U 17042E   21110.68251022  .00000221  00000-0  27488-4 0  9998
2 42829  97.4776 343.2627 0013779 346.6472  13.4381 14.91257547205072
2017-042F               
1 42830U 17042F   21110.62917374  .00001071  00000-0  10869-3 0  9991
2 42830  97.4891 345.6168 0013642 339.8145  20.2533 14.92771041205175
FLYING LAPTOP           
1 42831U 17042G   21110.38800698  .00000278  00000-0  33172-4 0  9996
2 42831  97.4799 343.1913 0013766 348.1234  11.9638 14.91272709205037
CORVUS BC2              
1 42846U 17042X   21110.56577850  .00000157  00000-0  20509-4 0  9999
2 42846  97.4812 345.5225 0009019 341.8089  18.2807 14.92268810205201
CORVUS BC1              
1 42847U 17042Y   21110.13822740  .00000439  00000-0  48062-4 0  9991
2 42847  97.4816 345.3434 0008685 342.4423  17.6495 14.92370965205147
SIMPL                   
1 42983U 98067NF  21110.59076227  .00012224  00000-0  12311-3 0  9991
2 42983  51.6362 193.1700 0003122 119.5053 240.6254 15.65856853198333
CZ-4C R/B               
1 43012U 17072C   21110.56498888  .00000088  00000-0  29607-4 0  9992
2 43012  98.7323 122.5366 0127725 169.1898 191.2091 14.56160816182311
RADFXSAT (FOX-1B)       
1 43017U 17073E   21110.30621236  .00000957  00000-0  78214-4 0  9998
2 43017  97.7107  16.5934 0256395 129.8661 232.5411 14.79437715184525
EAGLESAT 1              
1 43018U 17073F   21110.31339860  .00001636  00000-0  12807-3 0  9999
2 43018  97.7113  17.3941 0253250 126.7884 235.6862 14.80423268184445
ECAMSAT                 
1 43019U 98067NG  21110.60922515  .00034828  00000-0  21940-3 0  9996
2 43019  51.6356 163.3553 0002510  81.5928 278.5356 15.76324482281056
INS-1C                  
1 43116U 18004F   21110.77742977  .00002859  00000-0  11754-3 0  9998
2 43116  97.4163 185.7988 0010284  52.8375 307.3801 15.24942084181852
FLOCK 3P'-3             
1 43119U 18004J   21110.64237738  .00002012  00000-0  85622-4 0  9998
2 43119  97.4152 184.6457 0011312  60.4036 299.8327 15.24114808181778
FLOCK 3P'-2             
1 43120U 18004K   21110.67174821  .00001729  00000-0  74657-4 0  9996
2 43120  97.4162 184.4952 0011345  60.6008 299.6360 15.23812169181764
FLOCK 3P'-1             
1 43121U 18004L   21110.74996990  .00006811  00000-0  26204-3 0  9995
2 43121  97.4153 186.1808 0010276  55.3260 304.8946 15.26668697181810
FLOCK 3P'-4             
1 43122U 18004M   21110.47126671  .00001641  00000-0  70947-4 0  9997
2 43122  97.4171 184.3936 0011193  62.9877 297.2502 15.23838089181735
MICROMAS-2A             
1 43131U 18004W   21110.85683496  .00004696  00000-0  17973-3 0  9994
2 43131  97.4134 187.1531 0009669  54.9720 305.2424 15.27015918181970
PICSAT                  
1 43132U 18004X   21110.47616535  .00003415  00000-0  13700-3 0  9995
2 43132  97.4111 185.5411 0010481  59.5128 300.7143 15.25630258181844
CNUSAIL-1               
1 43133U 18004Y   21110.86053020  .00002263  00000-0  94353-4 0  9997
2 43133  97.4091 185.0385 0010668  59.9882 300.2413 15.24683340181849
2018-004Z               
1 43134U 18004Z   21110.44626473  .00002833  00000-0  11543-3 0  9992
2 43134  97.4106 185.2384 0010398  60.7809 299.4467 15.25257320181829
FOX-1D (AO-92)          
1 43137U 18004AC  21110.46611171  .00002582  00000-0  10604-3 0  9994
2 43137  97.4093 185.0883 0010278  62.0032 298.2245 15.25063058181823
STEP CUBE LAB           
1 43138U 18004AD  21110.44095606  .00004514  00000-0  17483-3 0  9991
2 43138  97.4131 186.6223 0009801  60.0456 300.1754 15.26641561181909
